CCSDS_OMM_VERS,COMMENT,CREATION_DATE,ORIGINATOR,OBJECT_NAME,OBJECT_ID,CENTER_NAME,REF_FRAME,TIME_SYSTEM,MEAN_ELEMENT_THEORY,EPOCH,MEAN_MOTION,ECCENTRICITY,INCLINATION,RA_OF_ASC_NODE,ARG_OF_PERICENTER,MEAN_ANOMALY,EPHEMERIS_TYPE,CLASSIFICATION_TYPE,NORAD_CAT_ID,ELEMENT_SET_NO,REV_AT_EPOCH,BSTAR,MEAN_MOTION_DOT,MEAN_MOTION_DDOT,SEMIMAJOR_AXIS,PERIOD,APOAPSIS,PERIAPSIS,OBJECT_TYPE,RCS_SIZE,COUNTRY_CODE,LAUNCH_DATE,SITE,DECAY_DATE,FILE,GP_ID,TLE_LINE0,TLE_LINE1,TLE_LINE2
2,GENERATED VIA SPACE-TRACK.ORG API,2012-06-01T10:22:08,18 SPCS,GALILEO-FM2,2011-060B,EARTH,TEME,UTC,SGP4,2012-05-31T02:26:09.921408,1.704749,0.0006048,54.7506,123.5439,286.0997,73.8072,0,U,37847,999,379,0.0001,6.3e-07,0,29600.234,844.699,23240.002,23204.197,PAYLOAD,LARGE,ESA,2011-10-21,FRGUI,,1295450,88935226,0 GALILEO-FM2,1 37847U 11060B   12152.10150372 +.00000063 +00000-0 +10000-3 0  9990,2 37847 054.7506 123.5439 0006048 286.0997 073.8072 01.70474900003792
2,GENERATED VIA SPACE-TRACK.ORG API,2012-06-01T17:25:32,18 SPCS,GALILEO-FM2,2011-060B,EARTH,TEME,UTC,SGP4,2012-06-01T06:35:29.824800,1.70474899,0.0006047,54.751,123.5109,286.0775,73.8219,0,U,37847,999,381,0.0001,5.3e-07,0,29600.234,844.699,23239.999,23204.2,PAYLOAD,LARGE,ESA,2011-10-21,FRGUI,,1295632,88937619,0 GALILEO-FM2,1 37847U 11060B   12153.27465075  .00000053  00000-0  10000-3 0  9997,2 37847 054.7510 123.5109 0006047 286.0775 073.8219 01.70474899  3817
2,GENERATED VIA SPACE-TRACK.ORG API,2012-06-04T07:33:29,18 SPCS,GALILEO-FM2,2011-060B,EARTH,TEME,UTC,SGP4,2012-06-03T00:49:29.669087,1.70474908,0.0005994,54.7515,123.4614,286.4972,73.3905,0,U,37847,999,384,0.0001,3.5e-07,0,29600.233,844.699,23239.841,23204.356,PAYLOAD,LARGE,ESA,2011-10-21,FRGUI,,1296627,88977874,0 GALILEO-FM2,1 37847U 11060B   12155.03437117 +.00000035 +00000-0 +10000-3 0  9999,2 37847 054.7515 123.4614 0005994 286.4972 073.3905 01.70474908003846
2,GENERATED VIA SPACE-TRACK.ORG API,2012-06-04T09:29:59,18 SPCS,GALILEO-FM2,2011-060B,EARTH,TEME,UTC,SGP4,2012-06-04T04:58:49.486943,1.70474894,0.000596,54.7517,123.4285,286.7244,73.1538,0,U,37847,999,386,0.0001,2.5e-07,0,29600.235,844.699,23239.742,23204.458,PAYLOAD,LARGE,ESA,2011-10-21,FRGUI,,1296734,88980105,0 GALILEO-FM2,1 37847U 11060B   12156.20751721  .00000025  00000-0  10000-3 0  9998,2 37847 054.7517 123.4285 0005960 286.7244 073.1538 01.70474894  3866
2,GENERATED VIA SPACE-TRACK.ORG API,2012-06-06T07:36:32,18 SPCS,GALILEO-FM2,2011-060B,EARTH,TEME,UTC,SGP4,2012-06-04T19:03:29.935872,1.70474883,0.0005935,54.7518,123.4124,287.0277,72.8492,0,U,37847,999,387,0.0001,2.2e-07,0,29600.236,844.699,23239.669,23204.534,PAYLOAD,LARGE,ESA,2011-10-21,FRGUI,,1297916,89008227,0 GALILEO-FM2,1 37847U 11060B   12156.79409648 +.00000022 +00000-0 +10000-3 0  9997,2 37847 054.7518 123.4124 0005935 287.0277 072.8492 01.70474883003875
2,GENERATED VIA SPACE-TRACK.ORG API,2012-06-07T08:12:56,18 SPCS,GALILEO-FM2,2011-060B,EARTH,TEME,UTC,SGP4,2012-06-05T23:12:51.008255,1.70474868,0.0005948,54.752,123.3795,286.8385,73.0384,0,U,37847,999,389,0.0001,2e-07,0,29600.238,844.699,23239.709,23204.497,PAYLOAD,LARGE,ESA,2011-10-21,FRGUI,,1298569,89025888,0 GALILEO-FM2,1 37847U 11060B   12157.96725704 +.00000020 +00000-0 +10000-3 0  9999,2 37847 054.7520 123.3795 0005948 286.8385 073.0384 01.70474868003890
2,GENERATED VIA SPACE-TRACK.ORG API,2012-06-08T08:13:42,18 SPCS,GALILEO-FM2,2011-060B,EARTH,TEME,UTC,SGP4,2012-06-07T03:22:12.368352,1.70474864,0.0005949,54.7524,123.3467,286.9705,72.9086,0,U,37847,999,391,0.0001,2.1e-07,0,29600.238,844.699,23239.713,23204.494,PAYLOAD,LARGE,ESA,2011-10-21,FRGUI,,1298830,89037305,0 GALILEO-FM2,1 37847U 11060B   12159.14042093 +.00000021 +00000-0 +10000-3 0  9995,2 37847 054.7524 123.3467 0005949 286.9705 072.9086 01.70474864003914
2,GENERATED VIA SPACE-TRACK.ORG API,2012-06-11T17:29:31,18 SPCS,GALILEO-FM2,2011-060B,EARTH,TEME,UTC,SGP4,2012-06-08T07:31:34.090463,1.70474857,0.0005957,54.7528,123.3137,286.9103,72.9741,0,U,37847,999,393,0.0001,2.4e-07,0,29600.239,844.699,23239.737,23204.471,PAYLOAD,LARGE,ESA,2011-10-21,FRGUI,,1300859,89083453,0 GALILEO-FM2,1 37847U 11060B   12160.31358901 +.00000024 +00000-0 +10000-3 0  9997,2 37847 054.7528 123.3137 0005957 286.9103 072.9741 01.70474857003935
2,GENERATED VIA SPACE-TRACK.ORG API,2012-06-10T01:21:57,18 SPCS,GALILEO-FM2,2011-060B,EARTH,TEME,UTC,SGP4,2012-06-09T11:40:55.810848,1.70474854,0.0005963,54.7532,123.2807,286.948,72.9414,0,U,37847,999,395,0.0001,2.7e-07,0,29600.24,844.699,23239.755,23204.454,PAYLOAD,LARGE,ESA,2011-10-21,FRGUI,,1300036,89055238,0 GALILEO-FM2,1 37847U 11060B   12161.48675707  .00000027  00000-0  10000-3 0  9995,2 37847 054.7532 123.2807 0005963 286.9480 072.9414 01.70474854  3954
2,GENERATED VIA SPACE-TRACK.ORG API,2012-06-11T18:12:18,18 SPCS,GALILEO-FM2,2011-060B,EARTH,TEME,UTC,SGP4,2012-06-09T11:40:55.810848,1.70474854,0.0005963,54.7532,123.2807,286.948,72.9414,0,U,37847,999,395,0.0001,2.7e-07,0,29600.24,844.699,23239.755,23204.454,PAYLOAD,LARGE,ESA,2011-10-21,FRGUI,,1300902,89091402,0 GALILEO-FM2,1 37847U 11060B   12161.48675707 +.00000027 +00000-0 +10000-3 0  9995,2 37847 054.7532 123.2807 0005963 286.9480 072.9414 01.70474854003954
2,GENERATED VIA SPACE-TRACK.ORG API,2012-06-11T09:55:22,18 SPCS,GALILEO-FM2,2011-060B,EARTH,TEME,UTC,SGP4,2012-06-10T01:45:36.604512,1.70474846,0.0005966,54.7535,123.2643,286.8392,73.052,0,U,37847,999,396,0.0001,2.8e-07,0,29600.241,844.699,23239.765,23204.446,PAYLOAD,LARGE,ESA,2011-10-21,FRGUI,,1300565,89074359,0 GALILEO-FM2,1 37847U 11060B   12162.07334033 +.00000028 +00000-0 +10000-3 0  9996,2 37847 054.7535 123.2643 0005966 286.8392 073.0520 01.70474846003961
2,GENERATED VIA SPACE-TRACK.ORG API,2012-06-12T10:13:34,18 SPCS,GALILEO-FM2,2011-060B,EARTH,TEME,UTC,SGP4,2012-06-11T05:54:58.024223,1.70474834,0.0005946,54.7539,123.2315,286.89,73.0034,0,U,37847,999,398,0.0001,2.8e-07,0,29600.242,844.699,23239.707,23204.507,PAYLOAD,LARGE,ESA,2011-10-21,FRGUI,,1301249,89104841,0 GALILEO-FM2,1 37847U 11060B   12163.24650491 +.00000028 +00000-0 +10000-3 0  9995,2 37847 054.7539 123.2315 0005946 286.8900 073.0034 01.70474834003983
2,GENERATED VIA SPACE-TRACK.ORG API,2012-06-12T00:57:02,18 SPCS,GALILEO-FM2,2011-060B,EARTH,TEME,UTC,SGP4,2012-06-11T19:59:38.732352,1.7047483,0.0005938,54.7541,123.2149,286.7221,73.1727,0,U,37847,999,399,0.0001,2.7e-07,0,29600.242,844.699,23239.684,23204.531,PAYLOAD,LARGE,ESA,2011-10-21,FRGUI,,1301023,89093993,0 GALILEO-FM2,1 37847U 11060B   12163.83308718  .00000027  00000-0  10000-3 0  9991,2 37847 054.7541 123.2149 0005938 286.7221 073.1727 01.70474830  3994
2,GENERATED VIA SPACE-TRACK.ORG API,2012-06-13T08:55:05,18 SPCS,GALILEO-FM2,2011-060B,EARTH,TEME,UTC,SGP4,2012-06-12T10:04:19.211519,1.70474835,0.0005927,54.7544,123.1982,286.6443,73.2508,0,U,37847,999,400,0.0001,2.5e-07,0,29600.242,844.699,23239.651,23204.563,PAYLOAD,LARGE,ESA,2011-10-21,FRGUI,,1301696,89118276,0 GALILEO-FM2,1 37847U 11060B   12164.41966680 +.00000025 +00000-0 +10000-3 0  9992,2 37847 054.7544 123.1982 0005927 286.6443 073.2508 01.70474835004000
2,GENERATED VIA SPACE-TRACK.ORG API,2012-06-14T08:20:18,18 SPCS,GALILEO-FM2,2011-060B,EARTH,TEME,UTC,SGP4,2012-06-13T00:08:59.548992,1.70474833,0.0005917,54.7546,123.1818,286.6723,73.2215,0,U,37847,999,401,0.0001,2.3e-07,0,29600.242,844.699,23239.622,23204.593,PAYLOAD,LARGE,ESA,2011-10-21,FRGUI,,1302357,89133316,0 GALILEO-FM2,1 37847U 11060B   12165.00624478 +.00000023 +00000-0 +10000-3 0  9992,2 37847 054.7546 123.1818 0005917 286.6723 073.2215 01.70474833004014
2,GENERATED VIA SPACE-TRACK.ORG API,2012-06-14T09:29:43,18 SPCS,GALILEO-FM2,2011-060B,EARTH,TEME,UTC,SGP4,2012-06-14T04:18:20.160863,1.70474831,0.0005912,54.755,123.1489,286.6721,73.2188,0,U,37847,999,403,0.0001,1.9e-07,0,29600.242,844.699,23239.607,23204.608,PAYLOAD,LARGE,ESA,2011-10-21,FRGUI,,1302459,89135330,0 GALILEO-FM2,1 37847U 11060B   12166.17940001  .00000019  00000-0  10000-3 0  9999,2 37847 054.7550 123.1489 0005912 286.6721 073.2188 01.70474831  4035
2,GENERATED VIA SPACE-TRACK.ORG API,2012-06-16T09:06:13,18 SPCS,GALILEO-FM2,2011-060B,EARTH,TEME,UTC,SGP4,2012-06-15T08:27:40.879007,1.70474815,0.0005855,54.7553,123.1163,286.726,73.162,0,U,37847,999,405,0.0001,1.6e-07,0,29600.244,844.699,23239.44,23204.778,PAYLOAD,LARGE,ESA,2011-10-21,FRGUI,,1303443,89165904,0 GALILEO-FM2,1 37847U 11060B   12167.35255647 +.00000016 +00000-0 +10000-3 0  9992,2 37847 054.7553 123.1163 0005855 286.7260 073.1620 01.70474815004056
2,GENERATED VIA SPACE-TRACK.ORG API,2012-06-17T09:08:50,18 SPCS,GALILEO-FM2,2011-060B,EARTH,TEME,UTC,SGP4,2012-06-15T22:32:21.041087,1.70474812,0.0005853,54.7555,123.0998,286.8081,73.0774,0,U,37847,999,406,0.0001,1.5e-07,0,29600.244,844.699,23239.435,23204.784,PAYLOAD,LARGE,ESA,2011-10-21,FRGUI,,1303794,89180704,0 GALILEO-FM2,1 37847U 11060B   12167.93913242 +.00000015 +00000-0 +10000-3 0  9997,2 37847 054.7555 123.0998 0005853 286.8081 073.0774 01.70474812004060
2,GENERATED VIA SPACE-TRACK.ORG API,2012-06-17T16:57:35,18 SPCS,GALILEO-FM2,2011-060B,EARTH,TEME,UTC,SGP4,2012-06-17T02:41:41.567423,1.7047482,0.0005847,54.7559,123.067,286.7448,73.1381,0,U,37847,999,408,0.0001,1.4e-07,0,29600.244,844.699,23239.416,23204.801,PAYLOAD,LARGE,ESA,2011-10-21,FRGUI,,1303925,89183457,0 GALILEO-FM2,1 37847U 11060B   12169.11228666  .00000014  00000-0  10000-3 0  9997,2 37847 054.7559 123.0670 0005847 286.7448 073.1381 01.70474820  4086
2,GENERATED VIA SPACE-TRACK.ORG API,2012-06-20T07:57:30,18 SPCS,GALILEO-FM2,2011-060B,EARTH,TEME,UTC,SGP4,2012-06-18T20:55:42.675744,1.70474805,0.0005793,54.7563,123.0177,286.6621,73.2172,0,U,37847,999,411,0.0001,1.5e-07,0,29600.245,844.699,23239.258,23204.963,PAYLOAD,LARGE,ESA,2011-10-21,FRGUI,,1305411,89217181,0 GALILEO-FM2,1 37847U 11060B   12170.87202171 +.00000015 +00000-0 +10000-3 0  9996,2 37847 054.7563 123.0177 0005793 286.6621 073.2172 01.70474805004111
